[
  {
    "OBJECT_NAME": "STARLINK-5012",
    "OBJECT_ID": "2022-119AJ",
    "EPOCH": "2025-06-28T20:10:50.702304",
    "MEAN_MOTION": 15.08836597,
    "ECCENTRICITY": 0.0001322,
    "INCLINATION": 53.2182,
    "RA_OF_ASC_NODE": 13.5963,
    "ARG_OF_PERICENTER": 97.5514,
    "MEAN_ANOMALY": 262.5628,
    "EPHEMERIS_TYPE": 0,
    "CLASSIFICATION_TYPE": "U",
    "NORAD_CAT_ID": 53918,
    "ELEMENT_SET_NO": 999,
    "REV_AT_EPOCH": 15308,
    "BSTAR": -4.2598e-05,
    "MEAN_MOTION_DOT": -9.66e-06,
    "MEAN_MOTION_DDOT": 0
  },
  {
    "OBJECT_NAME": "STARLINK-5023",
    "OBJECT_ID": "2022-119AK",
    "EPOCH": "2025-06-28T13:43:59.991168",
    "MEAN_MOTION": 15.08831512,
    "ECCENTRICITY": 0.0001456,
    "INCLINATION": 53.2183,
    "RA_OF_ASC_NODE": 14.7628,
    "ARG_OF_PERICENTER": 91.0029,
    "MEAN_ANOMALY": 269.113,
    "EPHEMERIS_TYPE": 0,
    "CLASSIFICATION_TYPE": "U",
    "NORAD_CAT_ID": 53919,
    "ELEMENT_SET_NO": 999,
    "REV_AT_EPOCH": 15346,
    "BSTAR": -2.5605e-05,
    "MEAN_MOTION_DOT": -6.95e-06,
    "MEAN_MOTION_DDOT": 0
  },
  {
    "OBJECT_NAME": "STARLINK-5025",
    "OBJECT_ID": "2022-119AL",
    "EPOCH": "2025-06-28T12:36:31.160160",
    "MEAN_MOTION": 15.08838967,
    "ECCENTRICITY": 0.0001418,
    "INCLINATION": 53.2202,
    "RA_OF_ASC_NODE": 15.1757,
    "ARG_OF_PERICENTER": 88.1211,
    "MEAN_ANOMALY": 271.9943,
    "EPHEMERIS_TYPE": 0,
    "CLASSIFICATION_TYPE": "U",
    "NORAD_CAT_ID": 53920,
    "ELEMENT_SET_NO": 999,
    "REV_AT_EPOCH": 15345,
    "BSTAR": 2.3322e-06,
    "MEAN_MOTION_DOT": -2.51e-06,
    "MEAN_MOTION_DDOT": 0
  },
  {
    "OBJECT_NAME": "STARLINK-5002",
    "OBJECT_ID": "2022-119AN",
    "EPOCH": "2025-06-28T13:28:04.593792",
    "MEAN_MOTION": 15.08836068,
    "ECCENTRICITY": 0.0001429,
    "INCLINATION": 53.2183,
    "RA_OF_ASC_NODE": 14.6952,
    "ARG_OF_PERICENTER": 91.7469,
    "MEAN_ANOMALY": 268.3687,
    "EPHEMERIS_TYPE": 0,
    "CLASSIFICATION_TYPE": "U",
    "NORAD_CAT_ID": 53922,
    "ELEMENT_SET_NO": 999,
    "REV_AT_EPOCH": 15346,
    "BSTAR": -5.5531e-05,
    "MEAN_MOTION_DOT": -1.172e-05,
    "MEAN_MOTION_DDOT": 0
  },
  {
    "OBJECT_NAME": "STARLINK-5004",
    "OBJECT_ID": "2022-119AP",
    "EPOCH": "2025-06-27T23:20:13.028064",
    "MEAN_MOTION": 15.08834901,
    "ECCENTRICITY": 0.0001342,
    "INCLINATION": 53.2189,
    "RA_OF_ASC_NODE": 17.4162,
    "ARG_OF_PERICENTER": 91.1822,
    "MEAN_ANOMALY": 268.9324,
    "EPHEMERIS_TYPE": 0,
    "CLASSIFICATION_TYPE": "U",
    "NORAD_CAT_ID": 53923,
    "ELEMENT_SET_NO": 999,
    "REV_AT_EPOCH": 15337,
    "BSTAR": -2.7473e-05,
    "MEAN_MOTION_DOT": -7.25e-06,
    "MEAN_MOTION_DDOT": 0
  },
  {
    "OBJECT_NAME": "STARLINK-5001",
    "OBJECT_ID": "2022-119AQ",
    "EPOCH": "2025-06-28T20:08:51.569664",
    "MEAN_MOTION": 15.08836249,
    "ECCENTRICITY": 0.0001357,
    "INCLINATION": 53.2192,
    "RA_OF_ASC_NODE": 8.6019,
    "ARG_OF_PERICENTER": 85.0886,
    "MEAN_ANOMALY": 275.0261,
    "EPHEMERIS_TYPE": 0,
    "CLASSIFICATION_TYPE": "U",
    "NORAD_CAT_ID": 53924,
    "ELEMENT_SET_NO": 999,
    "REV_AT_EPOCH": 15315,
    "BSTAR": 5.9888e-06,
    "MEAN_MOTION_DOT": -1.93e-06,
    "MEAN_MOTION_DDOT": 0
  },
  {
    "OBJECT_NAME": "STARLINK-5011",
    "OBJECT_ID": "2022-119AR",
    "EPOCH": "2025-06-28T13:06:51.176160",
    "MEAN_MOTION": 15.08835692,
    "ECCENTRICITY": 0.0001436,
    "INCLINATION": 53.219,
    "RA_OF_ASC_NODE": 14.6147,
    "ARG_OF_PERICENTER": 86.4207,
    "MEAN_ANOMALY": 273.695,
    "EPHEMERIS_TYPE": 0,
    "CLASSIFICATION_TYPE": "U",
    "NORAD_CAT_ID": 53925,
    "ELEMENT_SET_NO": 999,
    "REV_AT_EPOCH": 15346,
    "BSTAR": -7.5313e-06,
    "MEAN_MOTION_DOT": -4.08e-06,
    "MEAN_MOTION_DDOT": 0
  },
  {
    "OBJECT_NAME": "STARLINK-5014",
    "OBJECT_ID": "2022-119AS",
    "EPOCH": "2025-06-28T11:55:59.964384",
    "MEAN_MOTION": 15.0883332,
    "ECCENTRICITY": 0.0001421,
    "INCLINATION": 53.2183,
    "RA_OF_ASC_NODE": 10.0181,
    "ARG_OF_PERICENTER": 102.5821,
    "MEAN_ANOMALY": 257.5331,
    "EPHEMERIS_TYPE": 0,
    "CLASSIFICATION_TYPE": "U",
    "NORAD_CAT_ID": 53926,
    "ELEMENT_SET_NO": 999,
    "REV_AT_EPOCH": 15353,
    "BSTAR": -0.00019441,
    "MEAN_MOTION_DOT": -3.38e-05,
    "MEAN_MOTION_DDOT": 0
  },
  {
    "OBJECT_NAME": "STARLINK-5008",
    "OBJECT_ID": "2022-119AT",
    "EPOCH": "2025-06-28T22:00:03.000096",
    "MEAN_MOTION": 15.53513486,
    "ECCENTRICITY": 0.0002961,
    "INCLINATION": 53.1921,
    "RA_OF_ASC_NODE": 321.4506,
    "ARG_OF_PERICENTER": 249.3769,
    "MEAN_ANOMALY": 199.8755,
    "EPHEMERIS_TYPE": 0,
    "CLASSIFICATION_TYPE": "U",
    "NORAD_CAT_ID": 53927,
    "ELEMENT_SET_NO": 999,
    "REV_AT_EPOCH": 15382,
    "BSTAR": 0.0019442,
    "MEAN_MOTION_DOT": 0.00127248,
    "MEAN_MOTION_DDOT": 0
  },
  {
    "OBJECT_NAME": "STARLINK-5009",
    "OBJECT_ID": "2022-119AU",
    "EPOCH": "2025-06-27T23:26:51.101376",
    "MEAN_MOTION": 15.08839221,
    "ECCENTRICITY": 0.0001262,
    "INCLINATION": 53.2193,
    "RA_OF_ASC_NODE": 7.469,
    "ARG_OF_PERICENTER": 88.7632,
    "MEAN_ANOMALY": 271.3505,
    "EPHEMERIS_TYPE": 0,
    "CLASSIFICATION_TYPE": "U",
    "NORAD_CAT_ID": 53928,
    "ELEMENT_SET_NO": 999,
    "REV_AT_EPOCH": 15351,
    "BSTAR": 3.4654e-05,
    "MEAN_MOTION_DOT": 2.64e-06,
    "MEAN_MOTION_DDOT": 0
  },
  {
    "OBJECT_NAME": "STARLINK-5018",
    "OBJECT_ID": "2022-119AV",
    "EPOCH": "2025-06-28T13:18:57.933216",
    "MEAN_MOTION": 15.08835296,
    "ECCENTRICITY": 0.000134,
    "INCLINATION": 53.2183,
    "RA_OF_ASC_NODE": 15.3496,
    "ARG_OF_PERICENTER": 94.7441,
    "MEAN_ANOMALY": 265.3705,
    "EPHEMERIS_TYPE": 0,
    "CLASSIFICATION_TYPE": "U",
    "NORAD_CAT_ID": 53929,
    "ELEMENT_SET_NO": 999,
    "REV_AT_EPOCH": 15345,
    "BSTAR": -6.1527e-05,
    "MEAN_MOTION_DOT": -1.267e-05,
    "MEAN_MOTION_DDOT": 0
  },
  {
    "OBJECT_NAME": "STARLINK-5010",
    "OBJECT_ID": "2022-119AW",
    "EPOCH": "2025-06-28T19:45:38.800800",
    "MEAN_MOTION": 15.08835345,
    "ECCENTRICITY": 0.0001384,
    "INCLINATION": 53.2195,
    "RA_OF_ASC_NODE": 3.5103,
    "ARG_OF_PERICENTER": 85.3281,
    "MEAN_ANOMALY": 274.7869,
    "EPHEMERIS_TYPE": 0,
    "CLASSIFICATION_TYPE": "U",
    "NORAD_CAT_ID": 53930,
    "ELEMENT_SET_NO": 999,
    "REV_AT_EPOCH": 15322,
    "BSTAR": 1.2296e-05,
    "MEAN_MOTION_DOT": -9.2e-07,
    "MEAN_MOTION_DDOT": 0
  },
  {
    "OBJECT_NAME": "STARLINK-5015",
    "OBJECT_ID": "2022-119AX",
    "EPOCH": "2025-06-28T19:33:02.706624",
    "MEAN_MOTION": 15.08837304,
    "ECCENTRICITY": 0.0001313,
    "INCLINATION": 53.2185,
    "RA_OF_ASC_NODE": 358.4748,
    "ARG_OF_PERICENTER": 87.0716,
    "MEAN_ANOMALY": 273.0427,
    "EPHEMERIS_TYPE": 0,
    "CLASSIFICATION_TYPE": "U",
    "NORAD_CAT_ID": 53931,
    "ELEMENT_SET_NO": 999,
    "REV_AT_EPOCH": 15329,
    "BSTAR": 2.9139e-05,
    "MEAN_MOTION_DOT": 1.76e-06,
    "MEAN_MOTION_DDOT": 0
  },
  {
    "OBJECT_NAME": "STARLINK-4772",
    "OBJECT_ID": "2022-119AY",
    "EPOCH": "2025-06-28T18:56:02.878080",
    "MEAN_MOTION": 15.08827262,
    "ECCENTRICITY": 0.0001321,
    "INCLINATION": 53.2189,
    "RA_OF_ASC_NODE": 359.0169,
    "ARG_OF_PERICENTER": 80.162,
    "MEAN_ANOMALY": 279.9521,
    "EPHEMERIS_TYPE": 0,
    "CLASSIFICATION_TYPE": "U",
    "NORAD_CAT_ID": 53932,
    "ELEMENT_SET_NO": 999,
    "REV_AT_EPOCH": 15328,
    "BSTAR": -3.7904e-05,
    "MEAN_MOTION_DOT": -8.91e-06,
    "MEAN_MOTION_DDOT": 0
  },
  {
    "OBJECT_NAME": "STARLINK-4782",
    "OBJECT_ID": "2022-119AZ",
    "EPOCH": "2025-06-28T20:01:31.488672",
    "MEAN_MOTION": 15.08860521,
    "ECCENTRICITY": 0.0001198,
    "INCLINATION": 53.2188,
    "RA_OF_ASC_NODE": 3.5802,
    "ARG_OF_PERICENTER": 87.7831,
    "MEAN_ANOMALY": 272.3299,
    "EPHEMERIS_TYPE": 0,
    "CLASSIFICATION_TYPE": "U",
    "NORAD_CAT_ID": 53933,
    "ELEMENT_SET_NO": 999,
    "REV_AT_EPOCH": 15322,
    "BSTAR": 0.00013967,
    "MEAN_MOTION_DOT": 1.937e-05,
    "MEAN_MOTION_DDOT": 0
  },
  {
    "OBJECT_NAME": "STARLINK-4775",
    "OBJECT_ID": "2022-119BA",
    "EPOCH": "2025-06-28T18:50:43.059840",
    "MEAN_MOTION": 15.08833726,
    "ECCENTRICITY": 0.0001296,
    "INCLINATION": 53.2189,
    "RA_OF_ASC_NODE": 358.9914,
    "ARG_OF_PERICENTER": 94.5242,
    "MEAN_ANOMALY": 265.5899,
    "EPHEMERIS_TYPE": 0,
    "CLASSIFICATION_TYPE": "U",
    "NORAD_CAT_ID": 53934,
    "ELEMENT_SET_NO": 999,
    "REV_AT_EPOCH": 15328,
    "BSTAR": -3.9226e-06,
    "MEAN_MOTION_DOT": -3.5e-06,
    "MEAN_MOTION_DDOT": 0
  },
  {
    "OBJECT_NAME": "STARLINK-5000",
    "OBJECT_ID": "2022-119BB",
    "EPOCH": "2025-06-28T12:03:58.646304",
    "MEAN_MOTION": 15.08830616,
    "ECCENTRICITY": 0.0001416,
    "INCLINATION": 53.2193,
    "RA_OF_ASC_NODE": 350.0879,
    "ARG_OF_PERICENTER": 92.0052,
    "MEAN_ANOMALY": 268.1102,
    "EPHEMERIS_TYPE": 0,
    "CLASSIFICATION_TYPE": "U",
    "NORAD_CAT_ID": 53935,
    "ELEMENT_SET_NO": 999,
    "REV_AT_EPOCH": 15380,
    "BSTAR": -2.1612e-05,
    "MEAN_MOTION_DOT": -6.32e-06,
    "MEAN_MOTION_DDOT": 0
  },
  {
    "OBJECT_NAME": "STARLINK-4791",
    "OBJECT_ID": "2022-119BC",
    "EPOCH": "2025-06-28T19:43:39.167040",
    "MEAN_MOTION": 15.08839746,
    "ECCENTRICITY": 0.000129,
    "INCLINATION": 53.2186,
    "RA_OF_ASC_NODE": 358.5131,
    "ARG_OF_PERICENTER": 84.5556,
    "MEAN_ANOMALY": 275.5583,
    "EPHEMERIS_TYPE": 0,
    "CLASSIFICATION_TYPE": "U",
    "NORAD_CAT_ID": 53936,
    "ELEMENT_SET_NO": 999,
    "REV_AT_EPOCH": 15329,
    "BSTAR": -6.1849e-06,
    "MEAN_MOTION_DOT": -3.86e-06,
    "MEAN_MOTION_DDOT": 0
  }
]